start=new Date('2022-07-19T00:00:00.000Z').valueOf();
sats=[{"MEAN_MOTION":"15.06389183","COUNTRY_CODE":"US","FILE":"3517175","ARG_OF_PERICENTER":"69.0122","OBJECT_ID":"2021-024AW","MEAN_ELEMENT_THEORY":"SGP4","INCLINATION":"53.0553","APOAPSIS":"548.382","ELEMENT_SET_NO":"999","TLE_LINE2":"2 48021  53.0553 121.5200 0001639  69.0122 291.1042 15.06389183 74989","TLE_LINE1":"1 48021U 21024AW  22199.84892189 -.00000804  00000-0 -35109-4 0  9992","OBJECT_NAME":"STARLINK-2301","OBJECT_TYPE":"PAYLOAD","PERIOD":"95.593","RA_OF_ASC_NODE":"121.5200","PERIAPSIS":"546.112","EPHEMERIS_TYPE":"0","SITE":"AFETR","CENTER_NAME":"EARTH","LAUNCH_DATE":"2021-03-24","SEMIMAJOR_AXIS":"6925.382","ECCENTRICITY":"0.00016390","TIME_SYSTEM":"UTC","EPOCH":"2022-07-18T20:22:26.851296","MEAN_MOTION_DOT":"-0.00000804","MEAN_MOTION_DDOT":"0.0000000000000","MEAN_ANOMALY":"291.1042","NORAD_CAT_ID":"48021","BSTAR":"-0.00003510900000","GP_ID":"208406510","CLASSIFICATION_TYPE":"U","REF_FRAME":"TEME","RCS_SIZE":"LARGE","DECAY_DATE":null,"REV_AT_EPOCH":"7498"},{"BSTAR":"0.00001610600000","GP_ID":"208406748","CLASSIFICATION_TYPE":"U","MEAN_ANOMALY":"288.7272","NORAD_CAT_ID":"48022","REF_FRAME":"TEME","RCS_SIZE":"LARGE","REV_AT_EPOCH":"7416","DECAY_DATE":null,"EPHEMERIS_TYPE":"0","SITE":"AFETR","PERIOD":"95.592","RA_OF_ASC_NODE":"182.5595","PERIAPSIS":"546.042","EPOCH":"2022-07-18T16:15:40.943808","TIME_SYSTEM":"UTC","MEAN_MOTION_DOT":"-0.00000042","MEAN_MOTION_DDOT":"0.0000000000000","CENTER_NAME":"EARTH","ECCENTRICITY":"0.00017080","LAUNCH_DATE":"2021-03-24","SEMIMAJOR_AXIS":"6925.360","TLE_LINE2":"2 48022  53.0542 182.5595 0001708  71.3902 288.7272 15.06396218 74165","TLE_LINE1":"1 48022U 21024AX  22199.67755722 -.00000042  00000-0  16106-4 0  9994","OBJECT_TYPE":"PAYLOAD","OBJECT_NAME":"STARLINK-2298","COUNTRY_CODE":"US","MEAN_MOTION":"15.06396218","APOAPSIS":"548.408","ELEMENT_SET_NO":"999","ARG_OF_PERICENTER":"71.3902","FILE":"3517175","OBJECT_ID":"2021-024AX","MEAN_ELEMENT_THEORY":"SGP4","INCLINATION":"53.0542"},{"INCLINATION":"53.0549","MEAN_ELEMENT_THEORY":"SGP4","OBJECT_ID":"2021-024AY","ARG_OF_PERICENTER":"71.0506","FILE":"3517175","ELEMENT_SET_NO":"999","APOAPSIS":"548.355","MEAN_MOTION":"15.06393347","COUNTRY_CODE":"US","OBJECT_NAME":"STARLINK-2292","OBJECT_TYPE":"PAYLOAD","TLE_LINE1":"1 48023U 21024AY  22199.66647207  .00000233  00000-0  34527-4 0  9990","TLE_LINE2":"2 48023  53.0549 182.3366 0001619  71.0506 289.0658 15.06393347 74167","LAUNCH_DATE":"2021-03-24","SEMIMAJOR_AXIS":"6925.369","ECCENTRICITY":"0.00016190","CENTER_NAME":"EARTH","MEAN_MOTION_DDOT":"0.0000000000000","MEAN_MOTION_DOT":"0.00000233","TIME_SYSTEM":"UTC","EPOCH":"2022-07-18T15:59:43.186848","PERIAPSIS":"546.113","RA_OF_ASC_NODE":"182.3366","PERIOD":"95.593","SITE":"AFETR","EPHEMERIS_TYPE":"0","REV_AT_EPOCH":"7416","DECAY_DATE":null,"REF_FRAME":"TEME","RCS_SIZE":"LARGE","NORAD_CAT_ID":"48023","MEAN_ANOMALY":"289.0658","CLASSIFICATION_TYPE":"U","GP_ID":"208405510","BSTAR":"0.00003452700000"},{"RCS_SIZE":"LARGE","REF_FRAME":"TEME","REV_AT_EPOCH":"7406","DECAY_DATE":null,"BSTAR":"0.00006627000000","GP_ID":"208405760","CLASSIFICATION_TYPE":"U","MEAN_ANOMALY":"282.2098","NORAD_CAT_ID":"48026","MEAN_MOTION_DOT":"0.00000706","TIME_SYSTEM":"UTC","EPOCH":"2022-07-18T20:16:28.094304","MEAN_MOTION_DDOT":"0.0000000000000","CENTER_NAME":"EARTH","ECCENTRICITY":"0.00016010","LAUNCH_DATE":"2021-03-24","SEMIMAJOR_AXIS":"6925.350","SITE":"AFETR","EPHEMERIS_TYPE":"0","RA_OF_ASC_NODE":"186.5164","PERIOD":"95.592","PERIAPSIS":"546.107","OBJECT_NAME":"STARLINK-2278","OBJECT_TYPE":"PAYLOAD","TLE_LINE1":"1 48026U 21024BB  22199.84476961  .00000706  00000-0  66270-4 0  9995","TLE_LINE2":"2 48026  53.0538 186.5164 0001601  77.9071 282.2098 15.06399419 74061","APOAPSIS":"548.324","ELEMENT_SET_NO":"999","OBJECT_ID":"2021-024BB","MEAN_ELEMENT_THEORY":"SGP4","FILE":"3517175","ARG_OF_PERICENTER":"77.9071","INCLINATION":"53.0538","COUNTRY_CODE":"US","MEAN_MOTION":"15.06399419"},{"EPHEMERIS_TYPE":"0","SITE":"AFETR","PERIAPSIS":"546.189","PERIOD":"95.593","RA_OF_ASC_NODE":"162.2979","MEAN_MOTION_DDOT":"0.0000000000000","TIME_SYSTEM":"UTC","EPOCH":"2022-07-18T16:07:40.526976","MEAN_MOTION_DOT":"-0.00001562","SEMIMAJOR_AXIS":"6925.393","LAUNCH_DATE":"2021-03-24","ECCENTRICITY":"0.00015430","CENTER_NAME":"EARTH","GP_ID":"208407010","CLASSIFICATION_TYPE":"U","BSTAR":"-0.00008598600000","NORAD_CAT_ID":"48027","MEAN_ANOMALY":"285.3549","REV_AT_EPOCH":"7438","DECAY_DATE":null,"REF_FRAME":"TEME","RCS_SIZE":"LARGE","COUNTRY_CODE":"US","MEAN_MOTION":"15.06385569","ELEMENT_SET_NO":"999","APOAPSIS":"548.326","INCLINATION":"53.0527","ARG_OF_PERICENTER":"74.7610","FILE":"3517175","MEAN_ELEMENT_THEORY":"SGP4","OBJECT_ID":"2021-024BC","TLE_LINE2":"2 48027  53.0527 162.2979 0001543  74.7610 285.3549 15.06385569 74385","TLE_LINE1":"1 48027U 21024BC  22199.67199684 -.00001562  00000-0 -85986-4 0  9999","OBJECT_TYPE":"PAYLOAD","OBJECT_NAME":"STARLINK-2300"},{"MEAN_MOTION_DDOT":"0.0000000000000","MEAN_MOTION_DOT":"-0.00001067","EPOCH":"2022-07-18T20:31:08.699520","TIME_SYSTEM":"UTC","ECCENTRICITY":"0.00014970","LAUNCH_DATE":"2021-03-24","SEMIMAJOR_AXIS":"6925.386","CENTER_NAME":"EARTH","SITE":"AFETR","EPHEMERIS_TYPE":"0","PERIAPSIS":"546.214","RA_OF_ASC_NODE":"116.8772","PERIOD":"95.593","DECAY_DATE":null,"REV_AT_EPOCH":"7509","REF_FRAME":"TEME","RCS_SIZE":"LARGE","GP_ID":"208407248","CLASSIFICATION_TYPE":"U","BSTAR":"-0.00005277000000","NORAD_CAT_ID":"48028","MEAN_ANOMALY":"297.2646","ELEMENT_SET_NO":"999","APOAPSIS":"548.288","INCLINATION":"53.0553","OBJECT_ID":"2021-024BD","MEAN_ELEMENT_THEORY":"SGP4","FILE":"3517175","ARG_OF_PERICENTER":"62.8496","COUNTRY_CODE":"US","MEAN_MOTION":"15.06387769","OBJECT_NAME":"STARLINK-2264","OBJECT_TYPE":"PAYLOAD","TLE_LINE1":"1 48028U 21024BD  22199.85496180 -.00001067  00000-0 -52770-4 0  9996","TLE_LINE2":"2 48028  53.0553 116.8772 0001497  62.8496 297.2646 15.06387769 75092"},{"COUNTRY_CODE":"US","MEAN_MOTION":"15.06391955","APOAPSIS":"548.647","ELEMENT_SET_NO":"999","FILE":"3517175","ARG_OF_PERICENTER":"55.3585","OBJECT_ID":"2021-024BE","MEAN_ELEMENT_THEORY":"SGP4","INCLINATION":"53.0522","TLE_LINE2":"2 48029  53.0522 181.2392 0002034  55.3585 304.7595 15.06391955 74208","TLE_LINE1":"1 48029U 21024BE  22199.90973751 -.00000254  00000-0  18761-5 0  9996","OBJECT_TYPE":"PAYLOAD","OBJECT_NAME":"STARLINK-2299","EPHEMERIS_TYPE":"0","SITE":"AFETR","PERIOD":"95.593","RA_OF_ASC_NODE":"181.2392","PERIAPSIS":"545.830","EPOCH":"2022-07-18T21:50:01.320864","TIME_SYSTEM":"UTC","MEAN_MOTION_DOT":"-0.00000254","MEAN_MOTION_DDOT":"0.0000000000000","CENTER_NAME":"EARTH","LAUNCH_DATE":"2021-03-24","SEMIMAJOR_AXIS":"6925.373","ECCENTRICITY":"0.00020340","BSTAR":"0.00000187610000","CLASSIFICATION_TYPE":"U","GP_ID":"208406010","MEAN_ANOMALY":"304.7595","NORAD_CAT_ID":"48029","RCS_SIZE":"LARGE","REF_FRAME":"TEME","DECAY_DATE":null,"REV_AT_EPOCH":"7420"},{"TLE_LINE1":"1 48030U 21024BF  22199.67153861  .00000699  00000-0  65853-4 0  9999","OBJECT_NAME":"STARLINK-2268","OBJECT_TYPE":"PAYLOAD","TLE_LINE2":"2 48030  53.0547 187.2990 0001929  53.9674 306.1493 15.06399718 74031","ARG_OF_PERICENTER":"53.9674","FILE":"3517175","MEAN_ELEMENT_THEORY":"SGP4","OBJECT_ID":"2021-024BF","INCLINATION":"53.0547","APOAPSIS":"548.550","ELEMENT_SET_NO":"999","MEAN_MOTION":"15.06399718","COUNTRY_CODE":"US","RCS_SIZE":"LARGE","REF_FRAME":"TEME","DECAY_DATE":null,"REV_AT_EPOCH":"7403","MEAN_ANOMALY":"306.1493","NORAD_CAT_ID":"48030","BSTAR":"0.00006585300000","GP_ID":"208406259","CLASSIFICATION_TYPE":"U","CENTER_NAME":"EARTH","LAUNCH_DATE":"2021-03-24","SEMIMAJOR_AXIS":"6925.349","ECCENTRICITY":"0.00019290","EPOCH":"2022-07-18T16:07:00.935904","TIME_SYSTEM":"UTC","MEAN_MOTION_DOT":"0.00000699","MEAN_MOTION_DDOT":"0.0000000000000","PERIOD":"95.592","RA_OF_ASC_NODE":"187.2990","PERIAPSIS":"545.879","EPHEMERIS_TYPE":"0","SITE":"AFETR"},{"APOAPSIS":"548.342","ELEMENT_SET_NO":"999","MEAN_ELEMENT_THEORY":"SGP4","OBJECT_ID":"2021-024BG","ARG_OF_PERICENTER":"63.6406","FILE":"3517175","INCLINATION":"53.0577","COUNTRY_CODE":"US","MEAN_MOTION":"15.06392821","OBJECT_NAME":"STARLINK-2267","OBJECT_TYPE":"PAYLOAD","TLE_LINE1":"1 48031U 21024BG  22199.84247181 -.00000689  00000-0 -27390-4 0  9993","TLE_LINE2":"2 48031  53.0577  71.5401 0001597  63.6406 296.4747 15.06392821 75671","MEAN_MOTION_DOT":"-0.00000689","EPOCH":"2022-07-18T20:13:09.564384","TIME_SYSTEM":"UTC","MEAN_MOTION_DDOT":"0.0000000000000","CENTER_NAME":"EARTH","LAUNCH_DATE":"2021-03-24","ECCENTRICITY":"0.00015970","SEMIMAJOR_AXIS":"6925.371","SITE":"AFETR","EPHEMERIS_TYPE":"0","RA_OF_ASC_NODE":"71.5401","PERIOD":"95.593","PERIAPSIS":"546.130","REF_FRAME":"TEME","RCS_SIZE":"MEDIUM","REV_AT_EPOCH":"7567","DECAY_DATE":null,"BSTAR":"-0.00002739000000","GP_ID":"208406511","CLASSIFICATION_TYPE":"U","MEAN_ANOMALY":"296.4747","NORAD_CAT_ID":"48031"},{"RA_OF_ASC_NODE":"181.8898","PERIOD":"95.592","PERIAPSIS":"546.080","SITE":"AFETR","EPHEMERIS_TYPE":"0","CENTER_NAME":"EARTH","LAUNCH_DATE":"2021-03-24","SEMIMAJOR_AXIS":"6925.358","ECCENTRICITY":"0.00016500","MEAN_MOTION_DOT":"0.00000705","EPOCH":"2022-07-18T18:23:01.377024","TIME_SYSTEM":"UTC","MEAN_MOTION_DDOT":"0.0000000000000","MEAN_ANOMALY":"291.3639","NORAD_CAT_ID":"48033","BSTAR":"0.00006622600000","GP_ID":"208406749","CLASSIFICATION_TYPE":"U","RCS_SIZE":"LARGE","REF_FRAME":"TEME","DECAY_DATE":null,"REV_AT_EPOCH":"7418","MEAN_MOTION":"15.06396929","COUNTRY_CODE":"US","OBJECT_ID":"2021-024BJ","MEAN_ELEMENT_THEORY":"SGP4","ARG_OF_PERICENTER":"68.7526","FILE":"3517175","INCLINATION":"53.0557","APOAPSIS":"548.366","ELEMENT_SET_NO":"999","TLE_LINE2":"2 48033  53.0557 181.8898 0001650  68.7526 291.3639 15.06396929 74187","OBJECT_TYPE":"PAYLOAD","OBJECT_NAME":"STARLINK-2286","TLE_LINE1":"1 48033U 21024BJ  22199.76598816  .00000705  00000-0  66226-4 0  9998"}];
